DTC TEST OBJECT B       
1 69473U 26128B   26178.37654890  .00024134  00000+0  33565-3 0  9992
2 69473  55.0021 257.9040 0009934 325.3113  34.7274 15.56860342  2801
TJS-25                  
1 69474U 26129A   26188.88174465 -.00000355  00000+0  00000+0 0  9990
2 69474   5.9620 330.2985 0002991 282.4530 110.7173  1.00267215   272
STARLINK-37816          
1 69478U 26131A   26188.75003471 -.02412938  00000+0 -21130-1 0  9997
2 69478  97.2842 210.2100 0001604  92.5694 178.0229 15.72493652  5312
STARLINK-37878          
1 69479U 26131B   26188.75003471 -.02574189  00000+0 -17757-1 0  9995
2 69479  97.2841 210.2071 0001860  98.6015 162.1100 15.78177038  4175
STARLINK-37817          
1 69480U 26131C   26188.00032921  .00321772  00000+0  16094-2 0  9995
2 69480  97.2843 209.4321 0001058 136.5615 223.5737 15.80951429  5293
STARLINK-37727          
1 69481U 26131D   26188.75003471 -.02506688  00000+0 -21785-1 0  9993
2 69481  97.2846 210.2149 0001653 100.1014 182.1840 15.72208788  5318
STARLINK-37814          
1 69482U 26131E   26188.75903987 -.01072286  00000+0 -69939-2 0  9990
2 69482  97.2849 210.2372 0000657  84.8292 275.3050 15.78208941  5415
STARLINK-37869          
1 69483U 26131F   26188.75003471 -.02640866  00000+0 -20284-1 0  9995
2 69483  97.2844 210.2248 0001639  91.1464 214.2789 15.75244884  5319
STARLINK-37873          
1 69484U 26131G   26188.75003471 -.02462292  00000+0 -18401-1 0  9999
2 69484  97.2845 210.2284 0001465  96.4158 217.0507 15.76213826  5318
STARLINK-37892          
1 69485U 26131H   26188.69272803  .00291657  00000+0  14335-2 0  9994
2 69485  97.2847 210.1733 0012727 252.3168 107.6712 15.81310489  5407
STARLINK-37893          
1 69486U 26131J   26187.55271518  .00183522  00000+0  93924-3 0  9994
2 69486  97.2853 208.9693 0001379  94.8147 265.3279 15.80806533  5221
STARLINK-37842          
1 69487U 26131K   26188.75003471 -.02456065  00000+0 -20487-1 0  9990
2 69487  97.2849 210.2299 0001517  96.8098 219.3465 15.73696201  5313
STARLINK-37449          
1 69488U 26131L   26188.69078447  .00281145  00000+0  14511-2 0  9992
2 69488  97.2847 210.1766 0005276 167.2690 192.8713 15.80353757  5402
STARLINK-37831          
1 69489U 26131M   26188.75003471 -.01241180  00000+0 -11433-1 0  9992
2 69489  97.2846 210.2250 0001514  84.5548 221.2609 15.70188830  3951
STARLINK-37879          
1 69490U 26131N   26188.75003471 -.02115995  00000+0 -16911-1 0  9995
2 69490  97.2845 210.2377 0001748  96.7371 232.3468 15.74134594  5310
STARLINK-37856          
1 69491U 26131P   26188.00047326  .00343921  00000+0  17171-2 0  9999
2 69491  97.2847 209.4317 0001202 133.8142 226.3225 15.80934106  5296
STARLINK-37568          
1 69492U 26131Q   26188.75003471 -.02414491  00000+0 -20229-1 0  9997
2 69492  97.2850 210.2385 0001347 104.4345 232.1599 15.73526888  5403
STARLINK-37855          
1 69493U 26131R   26188.75708720  .00214702  00000+0  10916-2 0  9999
2 69493  97.2847 210.2393 0001373 127.3807 232.7587 15.80869231  5419
STARLINK-37854          
1 69494U 26131S   26188.66672454 -.02405217  00000+0 -15287-1 0  9996
2 69494  97.2844 210.1411 0002199 101.7226  97.3684 15.79705393  5368
STARLINK-37789          
1 69495U 26131T   26188.75003471 -.02420647  00000+0 -18594-1 0  9992
2 69495  97.2852 210.2468 0001463  88.4107 269.5144 15.75524377  5397
STARLINK-37839          
1 69496U 26131U   26188.75003471 -.02487452  00000+0 -17686-1 0  9991
2 69496  97.2846 210.2337 0001622  95.5793 227.5536 15.77368284  5375
STARLINK-37798          
1 69497U 26131V   26188.75003471 -.02438459  00000+0 -18563-1 0  9990
2 69497  97.2853 210.2496 0001376  81.1933 281.9757 15.75758724  5372
STARLINK-37853          
1 69498U 26131W   26188.49096361  .00215191  00000+0  10915-2 0  9998
2 69498  97.2855 209.9875 0000990  21.5254 338.6056 15.80919431  4119
STARLINK-37849          
1 69499U 26131X   26188.75003471 -.02541849  00000+0 -21737-1 0  9997
2 69499  97.2854 210.2502 0001281  85.0554 281.2888 15.72638975  5392
STARLINK-37835          
1 69500U 26131Y   26188.75003471 -.02420043  00000+0 -20605-1 0  9995
2 69500  97.2852 210.2481 0001297  92.4182 267.7139 15.73163428  4287
STARLINK-37843          
1 69501U 26131Z   26188.75003471 -.02502475  00000+0 -21974-1 0  9996
2 69501  97.2852 210.2482 0001313  85.9441 271.4369 15.71965476  5372
STARS-X                 
1 69502U 26132A   26188.71409767  .00001377  00000+0  11811-3 0  9994
2 69502  97.6882 252.1171 0013895 192.0809 168.0082 14.99093074  3855
PETREL                  
1 69503U 26132B   26188.71261847  .00001136  00000+0  98039-4 0  9991
2 69503  97.6911 252.1289 0013771 194.0539 166.0303 14.99172930  3857
BRO-22                  
1 69504U 26132C   26188.70197730  .00000993  00000+0  84937-4 0  9992
2 69504  97.6834 252.1195 0015758 208.1220 151.9154 14.99793155  3854
HORN-L                  
1 69505U 26132D   26188.41925220  .00002188  00000+0  13764-3 0  9991
2 69505  97.6734 252.0105 0024827 234.3210 125.5708 15.10057270  3825
