OBJECT_NAME,OBJECT_ID,EPOCH,MEAN_MOTION,ECCENTRICITY,INCLINATION,RA_OF_ASC_NODE,ARG_OF_PERICENTER,MEAN_ANOMALY,EPHEMERIS_TYPE,CLASSIFICATION_TYPE,NORAD_CAT_ID,ELEMENT_SET_NO,REV_AT_EPOCH,BSTAR,MEAN_MOTION_DOT,MEAN_MOTION_DDOT
DTC TEST OBJECT B,2026-128B,2026-06-27T09:02:13.824960,15.56860342,.0009934,55.0021,257.9040,325.3113,34.7274,0,U,69473,999,280,.3356545E-3,.24134E-3,0
TJS-25,2026-129A,2026-07-07T21:09:42.737760,1.00267215,.0002991,5.9620,330.2985,282.4530,110.7173,0,U,69474,999,27,0,-.355E-5,0
STARLINK-37816,2026-131A,2026-07-07T18:00:02.998944,15.72493652,.0001604,97.2842,210.2100,92.5694,178.0229,0,U,69478,999,531,-.2113E-1,-.2412938E-1,0
STARLINK-37878,2026-131B,2026-07-07T18:00:02.998944,15.78177038,.000186,97.2841,210.2071,98.6015,162.1100,0,U,69479,999,417,-.17757E-1,-.2574189E-1,0
STARLINK-37817,2026-131C,2026-07-07T00:00:28.443744,15.80951429,.00010584,97.2843,209.4321,136.5615,223.5737,0,U,69480,999,529,.16094205E-2,.321772E-2,0
STARLINK-37727,2026-131D,2026-07-07T18:00:02.998944,15.72208788,.0001653,97.2846,210.2149,100.1014,182.1840,0,U,69481,999,531,-.21785E-1,-.2506688E-1,0
STARLINK-37814,2026-131E,2026-07-07T18:13:01.044768,15.78208941,.0000657,97.2849,210.2372,84.8292,275.3050,0,U,69482,999,541,-.69939E-2,-.1072286E-1,0
STARLINK-37869,2026-131F,2026-07-07T18:00:02.998944,15.75244884,.0001639,97.2844,210.2248,91.1464,214.2789,0,U,69483,999,531,-.20284E-1,-.2640866E-1,0
STARLINK-37873,2026-131G,2026-07-07T18:00:02.998944,15.76213826,.0001465,97.2845,210.2284,96.4158,217.0507,0,U,69484,999,531,-.18401E-1,-.2462292E-1,0
STARLINK-37892,2026-131H,2026-07-07T16:37:31.701792,15.81310489,.0012727,97.2847,210.1733,252.3168,107.6712,0,U,69485,999,540,.14335E-2,.291657E-2,0
STARLINK-37893,2026-131J,2026-07-06T13:15:54.591552,15.80806533,.00013796,97.2853,208.9693,94.8147,265.3279,0,U,69486,999,522,.93923771E-3,.183522E-2,0
STARLINK-37842,2026-131K,2026-07-07T18:00:02.998944,15.73696201,.0001517,97.2849,210.2299,96.8098,219.3465,0,U,69487,999,531,-.20487E-1,-.2456065E-1,0
STARLINK-37449,2026-131L,2026-07-07T16:34:43.778208,15.80353757,.0005276,97.2847,210.1766,167.2690,192.8713,0,U,69488,999,540,.14511E-2,.281145E-2,0
STARLINK-37831,2026-131M,2026-07-07T18:00:02.998944,15.70188830,.0001514,97.2846,210.2250,84.5548,221.2609,0,U,69489,999,395,-.11433E-1,-.124118E-1,0
STARLINK-37879,2026-131N,2026-07-07T18:00:02.998944,15.74134594,.0001748,97.2845,210.2377,96.7371,232.3468,0,U,69490,999,531,-.16911E-1,-.2115995E-1,0
STARLINK-37856,2026-131P,2026-07-07T00:00:40.889664,15.80934106,.00012026,97.2847,209.4317,133.8142,226.3225,0,U,69491,999,529,.17171046E-2,.343921E-2,0
STARLINK-37568,2026-131Q,2026-07-07T18:00:02.998944,15.73526888,.0001347,97.2850,210.2385,104.4345,232.1599,0,U,69492,999,540,-.20229E-1,-.2414491E-1,0
STARLINK-37855,2026-131R,2026-07-07T18:10:12.334080,15.80869231,.0001373,97.2847,210.2393,127.3807,232.7587,0,U,69493,999,541,.10916E-2,.214702E-2,0
STARLINK-37854,2026-131S,2026-07-07T16:00:05.000256,15.79705393,.0002199,97.2844,210.1411,101.7226,97.3684,0,U,69494,999,536,-.15287E-1,-.2405217E-1,0
STARLINK-37789,2026-131T,2026-07-07T18:00:02.998944,15.75524377,.0001463,97.2852,210.2468,88.4107,269.5144,0,U,69495,999,539,-.18594E-1,-.2420647E-1,0
STARLINK-37839,2026-131U,2026-07-07T18:00:02.998944,15.77368284,.0001622,97.2846,210.2337,95.5793,227.5536,0,U,69496,999,537,-.17686E-1,-.2487452E-1,0
STARLINK-37798,2026-131V,2026-07-07T18:00:02.998944,15.75758724,.0001376,97.2853,210.2496,81.1933,281.9757,0,U,69497,999,537,-.18563E-1,-.2438459E-1,0
STARLINK-37853,2026-131W,2026-07-07T11:46:59.255904,15.80919431,.00009902,97.2855,209.9875,21.5254,338.6056,0,U,69498,999,411,.10915366E-2,.215191E-2,0
STARLINK-37849,2026-131X,2026-07-07T18:00:02.998944,15.72638975,.0001281,97.2854,210.2502,85.0554,281.2888,0,U,69499,999,539,-.21737E-1,-.2541849E-1,0
STARLINK-37835,2026-131Y,2026-07-07T18:00:02.998944,15.73163428,.0001297,97.2852,210.2481,92.4182,267.7139,0,U,69500,999,428,-.20605E-1,-.2420043E-1,0
STARLINK-37843,2026-131Z,2026-07-07T18:00:02.998944,15.71965476,.0001313,97.2852,210.2482,85.9441,271.4369,0,U,69501,999,537,-.21974E-1,-.2502475E-1,0
STARS-X,2026-132A,2026-07-07T17:08:18.038688,14.99093074,.0013895,97.6882,252.1171,192.0809,168.0082,0,U,69502,999,385,.11811E-3,.1377E-4,0
PETREL,2026-132B,2026-07-07T17:06:10.235808,14.99172930,.0013771,97.6911,252.1289,194.0539,166.0303,0,U,69503,999,385,.98039E-4,.1136E-4,0
BRO-22,2026-132C,2026-07-07T16:50:50.838720,14.99793155,.0015758,97.6834,252.1195,208.1220,151.9154,0,U,69504,999,385,.84937E-4,.993E-5,0
HORN-L,2026-132D,2026-07-07T10:03:43.390080,15.10057270,.00248271,97.6734,252.0105,234.3210,125.5708,0,U,69505,999,382,.13764206E-3,.2188E-4,0
